[
    {"name":"dominos","Area":"ANDHERI","pinCode":"400058"},
    {"name":"dominos","Area":"PRABHADEVI","pinCode":"400025"},
    {"name":"dominos","Area":"KHAR","pinCode":"400052"},
    {"name":"dominos","Area":"PEDDAR ROAD","pinCode":"400026"},
    {"name":"dominos","Area":"chakala","pinCode":"400072"},
    {"name":"dominos","Area":"CHEMBUR","pinCode":"400071"},
    {"name":"dominos","Area":"COLABA","pinCode":"400005"},
    {"name":"dominos","Area":"Thane","pinCode":"400601"},
    {"name":"dominos","Area":"MALAD","pinCode":"400064"},
    {"name":"dominos","Area":"SION","pinCode":"400022"},
    {"name":"dominos","Area":"Borivali","pinCode":"400092"},
    {"name":"dominos","Area":"Byculla","pinCode":"400008"},
    {"name":"dominos","Area":"Parle","pinCode":"400056"},
    {"name":"dominos","Area":"Lower Parel","pinCode":"400013"},
    {"name":"dominos","Area":"THANE","pinCode":"400607"},
    {"name":"dominos","Area":"BORIVALI","pinCode":"400103"},
    {"name":"dominos","Area":"CHOWPATTY","pinCode":"400007"},
    {"name":"dominos","Area":"MULUND","pinCode":"400080"},
    {"name":"dominos","Area":"KANDIVALI","pinCode":"400067"}
]